ONEWEB-0371             
1 49297U 21090U   24215.70147458 -.00000019  00000+0 -79547-4 0  9990
2 49297  87.9115  80.9526 0001724  82.5778 277.5551 13.19725082136308
ONEWEB-0372             
1 49298U 21090V   24215.91084046 -.00000008  00000+0 -51178-4 0  9995
2 49298  87.9182  50.3735 0001719  84.8031 275.3299 13.20770417139646
ONEWEB-0373             
1 49299U 21090W   24215.93781420  .00000024  00000+0  28163-4 0  9992
2 49299  87.9180  50.3838 0002058  80.2497 279.8869 13.20770116140833
ONEWEB-0374             
1 49300U 21090X   24215.88549123  .00000274  00000+0  70422-3 0  9992
2 49300  87.8924  65.6239 0001874  81.0128 279.1214 13.14501367137791
ONEWEB-0375             
1 49301U 21090Y   24215.92518336 -.00000054  00000+0 -16590-3 0  9994
2 49301  87.9180  50.3625 0002567  90.0726 270.0701 13.20773717140333
ONEWEB-0376             
1 49302U 21090Z   24215.92733797  .00000039  00000+0  65000-4 0  9997
2 49302  87.9109  80.9129 0001636  73.0718 287.0594 13.19726794136335
ONEWEB-0377             
1 49303U 21090AA  24215.60809595 -.00000022  00000+0 -85606-4 0  9991
2 49303  87.9182  50.4176 0001836  94.8625 265.2718 13.20771147141562
ONEWEB-0378             
1 49304U 21090AB  24215.93322642 -.00000016  00000+0 -70381-4 0  9998
2 49304  87.9182  50.3561 0001957  86.5569 273.5788 13.20771650139597
